{"type": "FeatureCollection", "features": [ {"type": "Feature", "properties": {"norad_id": 33867, "name": "IRIDIUM 33 DEB", "group": "iridium-33-debris", "lat": 9.586944646011325, "lon": -12.186913128644415, "alt_km": 334.4581573673304, "timestamp": "2025-12-18T07:01:54.973974+00:00", "meta": {"OBJECT_NAME": "IRIDIUM 33 DEB", "OBJECT_ID": "1997-051AL", "EPOCH": "2025-12-17T17:17:38.563008", "MEAN_MOTION": 15.77439013, "ECCENTRICITY": 0.00137248, "INCLINATION": 86.3647, "RA_OF_ASC_NODE": 347.4994, "ARG_OF_PERICENTER": 92.8453, "MEAN_ANOMALY": 267.4392, "EPHEMERIS_TYPE": 0, "CLASSIFICATION_TYPE": "U", "NORAD_CAT_ID": 33867, "ELEMENT_SET_NO": 999, "REV_AT_EPOCH": 89589, "BSTAR": 0.0066840387, "MEAN_MOTION_DOT": 0.01246262, "MEAN_MOTION_DDOT": 0}, "tle": {"line1": "1 33867U 97051AL  25351.72058522  .01246262  00000+0  66840-2 0  9994", "line2": "2 33867  86.3647 347.4994 0013724  92.8453 267.4392 15.77439013895893"}}, "geometry": {"type": "Point", "coordinates": [-12.186913128644415, 9.586944646011325]}}, {"type": "Feature", "properties": {"norad_id": 33870, "name": "IRIDIUM 33 DEB", "group": "iridium-33-debris", "lat": 52.72960958378971, "lon": 60.659604559118364, "alt_km": 738.905533740256, "timestamp": "2025-12-18T07:01:54.973985+00:00", "meta": {"OBJECT_NAME": "IRIDIUM 33 DEB", "OBJECT_ID": "1997-051AP", "EPOCH": "2025-12-17T16:26:11.652576", "MEAN_MOTION": 14.45877028, "ECCENTRICITY": 0.00219923, "INCLINATION": 86.3747, "RA_OF_ASC_NODE": 56.1412, "ARG_OF_PERICENTER": 162.2109, "MEAN_ANOMALY": 327.5308, "EPHEMERIS_TYPE": 0, "CLASSIFICATION_TYPE": "U", "NORAD_CAT_ID": 33870, "ELEMENT_SET_NO": 999, "REV_AT_EPOCH": 88208, "BSTAR": 0.00054897647, "MEAN_MOTION_DOT": 1.975e-05, "MEAN_MOTION_DDOT": 0}, "tle": {"line1": "1 33870U 97051AP  25351.68485709  .00001975  00000+0  54898-3 0  9994", "line2": "2 33870  86.3747  56.1412 0021992 162.2109 327.5308 14.45877028882081"}}, "geometry": {"type": "Point", "coordinates": [60.659604559118364, 52.72960958378971]}}, {"type": "Feature", "properties": {"norad_id": 33881, "name": "IRIDIUM 33 DEB", "group": "iridium-33-debris", "lat": 43.79144962717666, "lon": -79.14508838762063, "alt_km": 659.5770688534576, "timestamp": "2025-12-18T07:01:54.973997+00:00", "meta": {"OBJECT_NAME": "IRIDIUM 33 DEB", "OBJECT_ID": "1997-051BA", "EPOCH": "2025-12-17T13:59:16.230336", "MEAN_MOTION": 14.56660218, "ECCENTRICITY": 0.00614907, "INCLINATION": 86.386, "RA_OF_ASC_NODE": 104.6373, "ARG_OF_PERICENTER": 159.0678, "MEAN_ANOMALY": 215.4693, "EPHEMERIS_TYPE": 0, "CLASSIFICATION_TYPE": "U", "NORAD_CAT_ID": 33881, "ELEMENT_SET_NO": 999, "REV_AT_EPOCH": 87571, "BSTAR": 0.0015160031, "MEAN_MOTION_DOT": 6.964e-05, "MEAN_MOTION_DDOT": 0}, "tle": {"line1": "1 33881U 97051BA  25351.58282674  .00006964  00000+0  15160-2 0  9992", "line2": "2 33881  86.3860 104.6373 0061490 159.0678 215.4693 14.56660218875713"}}, "geometry": {"type": "Point", "coordinates": [-79.14508838762063, 43.79144962717666]}}, {"type": "Feature", "properties": {"norad_id": 33884, "name": "IRIDIUM 33 DEB", "group": "iridium-33-debris", "lat": 40.53347513504398, "lon": -175.7999782624364, "alt_km": 640.3002254098037, "timestamp": "2025-12-18T07:01:54.974008+00:00", "meta": {"OBJECT_NAME": "IRIDIUM 33 DEB", "OBJECT_ID": "1997-051BD", "EPOCH": "2025-12-17T13:04:54.280416", "MEAN_MOTION": 14.77523621, "ECCENTRICITY": 0.00093111, "INCLINATION": 86.3696, "RA_OF_ASC_NODE": 7.6497, "ARG_OF_PERICENTER": 305.3412, "MEAN_ANOMALY": 178.2939, "EPHEMERIS_TYPE": 0, "CLASSIFICATION_TYPE": "U", "NORAD_CAT_ID": 33884, "ELEMENT_SET_NO": 999, "REV_AT_EPOCH": 88918, "BSTAR": 0.0011919689, "MEAN_MOTION_DOT": 8.535e-05, "MEAN_MOTION_DDOT": 0}, "tle": {"line1": "1 33884U 97051BD  25351.54507269  .00008535  00000+0  11920-2 0  9997", "line2": "2 33884  86.3696   7.6497 0009311 305.3412 178.2939 14.77523621889182"}}, "geometry": {"type": "Point", "coordinates": [-175.7999782624364, 40.53347513504398]}}, {"type": "Feature", "properties": {"norad_id": 33886, "name": "IRIDIUM 33 DEB", "group": "iridium-33-debris", "lat": -41.88253397019085, "lon": 61.63976252803787, "alt_km": 779.2218456770943, "timestamp": "2025-12-18T07:01:54.974019+00:00", "meta": {"OBJECT_NAME": "IRIDIUM 33 DEB", "OBJECT_ID": "1997-051BF", "EPOCH": "2025-12-17T18:23:51.709344", "MEAN_MOTION": 14.36057926, "ECCENTRICITY": 0.00127005, "INCLINATION": 86.3828, "RA_OF_ASC_NODE": 65.113, "ARG_OF_PERICENTER": 223.4919, "MEAN_ANOMALY": 254.6704, "EPHEMERIS_TYPE": 0, "CLASSIFICATION_TYPE": "U", "NORAD_CAT_ID": 33886, "ELEMENT_SET_NO": 999, "REV_AT_EPOCH": 88124, "BSTAR": 0.00015934351, "MEAN_MOTION_DOT": 4.83e-06, "MEAN_MOTION_DDOT": 0}, "tle": {"line1": "1 33886U 97051BF  25351.76657071  .00000483  00000+0  15934-3 0  9994", "line2": "2 33886  86.3828  65.1130 0012700 223.4919 254.6704 14.36057926881245"}}, "geometry": {"type": "Point", "coordinates": [61.63976252803787, -41.88253397019085]}}, {"type": "Feature", "properties": {"norad_id": 33887, "name": "IRIDIUM 33 DEB", "group": "iridium-33-debris", "lat": -81.56331769116663, "lon": -24.835713741017614, "alt_km": 774.1198272097163, "timestamp": "2025-12-18T07:01:54.974029+00:00", "meta": {"OBJECT_NAME": "IRIDIUM 33 DEB", "OBJECT_ID": "1997-051BG", "EPOCH": "2025-12-17T12:04:10.318080", "MEAN_MOTION": 14.37225313, "ECCENTRICITY": 0.00049044, "INCLINATION": 86.3042, "RA_OF_ASC_NODE": 1.3395, "ARG_OF_PERICENTER": 206.8502, "MEAN_ANOMALY": 305.3018, "EPHEMERIS_TYPE": 0, "CLASSIFICATION_TYPE": "U", "NORAD_CAT_ID": 33887, "ELEMENT_SET_NO": 999, "REV_AT_EPOCH": 88233, "BSTAR": 0.00012790558, "MEAN_MOTION_DOT": 4e-06, "MEAN_MOTION_DDOT": 0}, "tle": {"line1": "1 33887U 97051BG  25351.50289720  .00000400  00000+0  12791-3 0  9996", "line2": "2 33887  86.3042   1.3395 0004904 206.8502 305.3018 14.37225313882330"}}, "geometry": {"type": "Point", "coordinates": [-24.835713741017614, -81.56331769116663]}}, {"type": "Feature", "properties": {"norad_id": 33953, "name": "IRIDIUM 33 DEB", "group": "iridium-33-debris", "lat": 44.66525369037496, "lon": -132.2131518921481, "alt_km": 696.0597362237095, "timestamp": "2025-12-18T07:01:54.974040+00:00", "meta": {"OBJECT_NAME": "IRIDIUM 33 DEB", "OBJECT_ID": "1997-051BN", "EPOCH": "2025-12-17T16:09:30.671424", "MEAN_MOTION": 14.55371526, "ECCENTRICITY": 0.00181202, "INCLINATION": 86.3847, "RA_OF_ASC_NODE": 51.6385, "ARG_OF_PERICENTER": 87.8438, "MEAN_ANOMALY": 42.2759, "EPHEMERIS_TYPE": 0, "CLASSIFICATION_TYPE": "U", "NORAD_CAT_ID": 33953, "ELEMENT_SET_NO": 999, "REV_AT_EPOCH": 88375, "BSTAR": 0.00082600684, "MEAN_MOTION_DOT": 3.613e-05, "MEAN_MOTION_DDOT": 0}, "tle": {"line1": "1 33953U 97051BN  25351.67327166  .00003613  00000+0  82601-3 0  9991", "line2": "2 33953  86.3847  51.6385 0018120  87.8438  42.2759 14.55371526883758"}}, "geometry": {"type": "Point", "coordinates": [-132.2131518921481, 44.66525369037496]}}, {"type": "Feature", "properties": {"norad_id": 33960, "name": "IRIDIUM 33 DEB", "group": "iridium-33-debris", "lat": 1.904600713422669, "lon": 106.77050651405504, "alt_km": 618.0366182155849, "timestamp": "2025-12-18T07:01:54.974051+00:00", "meta": {"OBJECT_NAME": "IRIDIUM 33 DEB", "OBJECT_ID": "1997-051BV", "EPOCH": "2025-12-17T19:11:44.757312", "MEAN_MOTION": 14.85444413, "ECCENTRICITY": 0.00074559, "INCLINATION": 86.2539, "RA_OF_ASC_NODE": 287.1279, "ARG_OF_PERICENTER": 54.0828, "MEAN_ANOMALY": 8.2478, "EPHEMERIS_TYPE": 0, "CLASSIFICATION_TYPE": "U", "NORAD_CAT_ID": 33960, "ELEMENT_SET_NO": 999, "REV_AT_EPOCH": 88942, "BSTAR": 0.0022545906, "MEAN_MOTION_DOT": 0.000195, "MEAN_MOTION_DDOT": 0}, "tle": {"line1": "1 33960U 97051BV  25351.79982358  .00019500  00000+0  22546-2 0  9995", "line2": "2 33960  86.2539 287.1279 0007455  54.0828   8.2478 14.85444413889428"}}, "geometry": {"type": "Point", "coordinates": [106.77050651405504, 1.904600713422669]}}, {"type": "Feature", "properties": {"norad_id": 33966, "name": "IRIDIUM 33 DEB", "group": "iridium-33-debris", "lat": 33.60391551541711, "lon": -138.75881377430676, "alt_km": 719.7358205786277, "timestamp": "2025-12-18T07:01:54.974061+00:00", "meta": {"OBJECT_NAME": "IRIDIUM 33 DEB", "OBJECT_ID": "1997-051CB", "EPOCH": "2025-12-17T16:02:50.820000", "MEAN_MOTION": 14.49613183, "ECCENTRICITY": 0.00079463, "INCLINATION": 86.3919, "RA_OF_ASC_NODE": 43.9121, "ARG_OF_PERICENTER": 172.4415, "MEAN_ANOMALY": 317.6514, "EPHEMERIS_TYPE": 0, "CLASSIFICATION_TYPE": "U", "NORAD_CAT_ID": 33966, "ELEMENT_SET_NO": 999, "REV_AT_EPOCH": 88513, "BSTAR": 0.00042551203, "MEAN_MOTION_DOT": 1.654e-05, "MEAN_MOTION_DDOT": 0}, "tle": {"line1": "1 33966U 97051CB  25351.66864375  .00001654  00000+0  42551-3 0  9995", "line2": "2 33966  86.3919  43.9121 0007946 172.4415 317.6514 14.49613183885137"}}, "geometry": {"type": "Point", "coordinates": [-138.75881377430676, 33.60391551541711]}}, {"type": "Feature", "properties": {"norad_id": 34071, "name": "IRIDIUM 33 DEB", "group": "iridium-33-debris", "lat": -30.24275768272738, "lon": -162.44942716313327, "alt_km": 736.6880472061757, "timestamp": "2025-12-18T07:01:54.974072+00:00", "meta": {"OBJECT_NAME": "IRIDIUM 33 DEB", "OBJECT_ID": "1997-051CE", "EPOCH": "2025-12-17T13:29:52.397664", "MEAN_MOTION": 14.49486285, "ECCENTRICITY": 0.00099928, "INCLINATION": 86.3453, "RA_OF_ASC_NODE": 15.7325, "ARG_OF_PERICENTER": 94.7771, "MEAN_ANOMALY": 265.4575, "EPHEMERIS_TYPE": 0, "CLASSIFICATION_TYPE": "U", "NORAD_CAT_ID": 34071, "ELEMENT_SET_NO": 999, "REV_AT_EPOCH": 88404, "BSTAR": 0.00046266915, "MEAN_MOTION_DOT": 1.793e-05, "MEAN_MOTION_DDOT": 0}, "tle": {"line1": "1 34071U 97051CE  25351.56241201  .00001793  00000+0  46267-3 0  9991", "line2": "2 34071  86.3453  15.7325 0009992  94.7771 265.4575 14.49486285884042"}}, "geometry": {"type": "Point", "coordinates": [-162.44942716313327, -30.24275768272738]}}]}